{
  "type": "FeatureCollection",
  "features": [
    {
      "type": "Feature",
      "properties": {
        "norad_id": 66601,
        "name": "STARLINK-35978",
        "group": "last-30-days",
        "lat": 20.68668162444563,
        "lon": -132.47420809351277,
        "alt_km": 412.754991695585,
        "timestamp": "2025-12-10T20:49:51.345469+00:00",
        "meta_object_name": "STARLINK-35978",
        "meta_object_id": "2025-270P",
        "meta_epoch": "2025-12-10T14:00:03.000384",
        "meta_mean_motion": 15.50688364,
        "meta_eccentricity": 0.00018854,
        "meta_inclination": 42.9996,
        "meta_ra_of_asc_node": 205.2857,
        "meta_arg_of_pericenter": 252.7748,
        "meta_mean_anomaly": 347.9494,
        "meta_ephemeris_type": 0,
        "meta_classification_type": "U",
        "meta_norad_cat_id": 66601,
        "meta_element_set_no": 999,
        "meta_rev_at_epoch": 389,
        "meta_bstar": -0.0038230387,
        "meta_mean_motion_dot": -0.00219323,
        "meta_mean_motion_ddot": 0,
        "tle_line1": "1 66601U 25270P   25344.58336806 -.00219323  00000+0 -38230-2 0  9991",
        "tle_line2": "2 66601  42.9996 205.2857 0001885 252.7748 347.9494 15.50688364  3892"
      },
      "geometry": {
        "type": "Point",
        "coordinates": [
          -132.47420809351277,
          20.68668162444563
        ]
      }
    },
    {
      "type": "Feature",
      "properties": {
        "norad_id": 66602,
        "name": "STARLINK-36050",
        "group": "last-30-days",
        "lat": 21.872829617817082,
        "lon": -130.8649459733247,
        "alt_km": 412.4168971204863,
        "timestamp": "2025-12-10T20:49:51.345481+00:00",
        "meta_object_name": "STARLINK-36050",
        "meta_object_id": "2025-270Q",
        "meta_epoch": "2025-12-10T14:00:03.000384",
        "meta_mean_motion": 15.50665996,
        "meta_eccentricity": 0.00017095,
        "meta_inclination": 42.9996,
        "meta_ra_of_asc_node": 205.281,
        "meta_arg_of_pericenter": 258.2318,
        "meta_mean_anomaly": 344.4168,
        "meta_ephemeris_type": 0,
        "meta_classification_type": "U",
        "meta_norad_cat_id": 66602,
        "meta_element_set_no": 999,
        "meta_rev_at_epoch": 395,
        "meta_bstar": -0.0030731006,
        "meta_mean_motion_dot": -0.00177162,
        "meta_mean_motion_ddot": 0,
        "tle_line1": "1 66602U 25270Q   25344.58336806 -.00177162  00000+0 -30731-2 0  9994",
        "tle_line2": "2 66602  42.9996 205.2810 0001709 258.2318 344.4168 15.50665996  3954"
      },
      "geometry": {
        "type": "Point",
        "coordinates": [
          -130.8649459733247,
          21.872829617817082
        ]
      }
    },
    {
      "type": "Feature",
      "properties": {
        "norad_id": 66603,
        "name": "STARLINK-36048",
        "group": "last-30-days",
        "lat": 23.029066276841196,
        "lon": -129.2500467810172,
        "alt_km": 412.52218387004905,
        "timestamp": "2025-12-10T20:49:51.345490+00:00",
        "meta_object_name": "STARLINK-36048",
        "meta_object_id": "2025-270R",
        "meta_epoch": "2025-12-10T14:00:03.000384",
        "meta_mean_motion": 15.50662819,
        "meta_eccentricity": 0.00016062,
        "meta_inclination": 43,
        "meta_ra_of_asc_node": 205.2753,
        "meta_arg_of_pericenter": 236.106,
        "meta_mean_anomaly": 8.4548,
        "meta_ephemeris_type": 0,
        "meta_classification_type": "U",
        "meta_norad_cat_id": 66603,
        "meta_element_set_no": 999,
        "meta_rev_at_epoch": 395,
        "meta_bstar": -0.0037320591,
        "meta_mean_motion_dot": -0.0021405,
        "meta_mean_motion_ddot": 0,
        "tle_line1": "1 66603U 25270R   25344.58336806 -.00214050  00000+0 -37321-2 0  9995",
        "tle_line2": "2 66603  43.0000 205.2753 0001606 236.1060   8.4548 15.50662819  3954"
      },
      "geometry": {
        "type": "Point",
        "coordinates": [
          -129.2500467810172,
          23.029066276841196
        ]
      }
    },
    {
      "type": "Feature",
      "properties": {
        "norad_id": 66604,
        "name": "STARLINK-35977",
        "group": "last-30-days",
        "lat": 24.184107723300475,
        "lon": -127.58310565980881,
        "alt_km": 412.28765117351486,
        "timestamp": "2025-12-10T20:49:51.345500+00:00",
        "meta_object_name": "STARLINK-35977",
        "meta_object_id": "2025-270S",
        "meta_epoch": "2025-12-10T14:00:03.000384",
        "meta_mean_motion": 15.50659314,
        "meta_eccentricity": 0.00015397,
        "meta_inclination": 42.9999,
        "meta_ra_of_asc_node": 205.2704,
        "meta_arg_of_pericenter": 238.3056,
        "meta_mean_anomaly": 8.1733,
        "meta_ephemeris_type": 0,
        "meta_classification_type": "U",
        "meta_norad_cat_id": 66604,
        "meta_element_set_no": 999,
        "meta_rev_at_epoch": 405,
        "meta_bstar": -0.0035866896,
        "meta_mean_motion_dot": -0.0020591,
        "meta_mean_motion_ddot": 0,
        "tle_line1": "1 66604U 25270S   25344.58336806 -.00205910  00000+0 -35867-2 0  9994",
        "tle_line2": "2 66604  42.9999 205.2704 0001539 238.3056   8.1733 15.50659314  4051"
      },
      "geometry": {
        "type": "Point",
        "coordinates": [
          -127.58310565980881,
          24.184107723300475
        ]
      }
    },
    {
      "type": "Feature",
      "properties": {
        "norad_id": 66605,
        "name": "STARLINK-36052",
        "group": "last-30-days",
        "lat": 25.336282155934196,
        "lon": -125.86056087530037,
        "alt_km": 412.11766611359144,
        "timestamp": "2025-12-10T20:49:51.345510+00:00",
        "meta_object_name": "STARLINK-36052",
        "meta_object_id": "2025-270T",
        "meta_epoch": "2025-12-10T14:00:03.000384",
        "meta_mean_motion": 15.50677289,
        "meta_eccentricity": 0.00018676,
        "meta_inclination": 42.9997,
        "meta_ra_of_asc_node": 205.2668,
        "meta_arg_of_pericenter": 251.4968,
        "meta_mean_anomaly": 356.8993,
        "meta_ephemeris_type": 0,
        "meta_classification_type": "U",
        "meta_norad_cat_id": 66605,
        "meta_element_set_no": 999,
        "meta_rev_at_epoch": 405,
        "meta_bstar": -0.0034324755,
        "meta_mean_motion_dot": -0.00197418,
        "meta_mean_motion_ddot": 0,
        "tle_line1": "1 66605U 25270T   25344.58336806 -.00197418  00000+0 -34325-2 0  9996",
        "tle_line2": "2 66605  42.9997 205.2668 0001867 251.4968 356.8993 15.50677289  4053"
      },
      "geometry": {
        "type": "Point",
        "coordinates": [
          -125.86056087530037,
          25.336282155934196
        ]
      }
    },
    {
      "type": "Feature",
      "properties": {
        "norad_id": 66606,
        "name": "STARLINK-36063",
        "group": "last-30-days",
        "lat": 27.53376536585479,
        "lon": -122.39138795074722,
        "alt_km": 411.7856548144364,
        "timestamp": "2025-12-10T20:49:51.345521+00:00",
        "meta_object_name": "STARLINK-36063",
        "meta_object_id": "2025-270U",
        "meta_epoch": "2025-12-10T14:00:03.000384",
        "meta_mean_motion": 15.50659443,
        "meta_eccentricity": 0.00015492,
        "meta_inclination": 42.9998,
        "meta_ra_of_asc_node": 205.2561,
        "meta_arg_of_pericenter": 238.6143,
        "meta_mean_anomaly": 13.6181,
        "meta_ephemeris_type": 0,
        "meta_classification_type": "U",
        "meta_norad_cat_id": 66606,
        "meta_element_set_no": 999,
        "meta_rev_at_epoch": 405,
        "meta_bstar": -0.0035763866,
        "meta_mean_motion_dot": -0.00205336,
        "meta_mean_motion_ddot": 0,
        "tle_line1": "1 66606U 25270U   25344.58336806 -.00205336  00000+0 -35764-2 0  9994",
        "tle_line2": "2 66606  42.9998 205.2561 0001549 238.6143  13.6181 15.50659443  4055"
      },
      "geometry": {
        "type": "Point",
        "coordinates": [
          -122.39138795074722,
          27.53376536585479
        ]
      }
    },
    {
      "type": "Feature",
      "properties": {
        "norad_id": 66607,
        "name": "STARLINK-35993",
        "group": "last-30-days",
        "lat": 26.4541820267431,
        "lon": -124.12856088315762,
        "alt_km": 411.9344302699865,
        "timestamp": "2025-12-10T20:49:51.345531+00:00",
        "meta_object_name": "STARLINK-35993",
        "meta_object_id": "2025-270V",
        "meta_epoch": "2025-12-10T14:00:03.000384",
        "meta_mean_motion": 15.50689871,
        "meta_eccentricity": 0.00018332,
        "meta_inclination": 42.9998,
        "meta_ra_of_asc_node": 205.2619,
        "meta_arg_of_pericenter": 252.8377,
        "meta_mean_anomaly": 357.4731,
        "meta_ephemeris_type": 0,
        "meta_classification_type": "U",
        "meta_norad_cat_id": 66607,
        "meta_element_set_no": 999,
        "meta_rev_at_epoch": 395,
        "meta_bstar": -0.0038956891,
        "meta_mean_motion_dot": -0.0022338,
        "meta_mean_motion_ddot": 0,
        "tle_line1": "1 66607U 25270V   25344.58336806 -.00223380  00000+0 -38957-2 0  9991",
        "tle_line2": "2 66607  42.9998 205.2619 0001833 252.8377 357.4731 15.50689871  3959"
      },
      "geometry": {
        "type": "Point",
        "coordinates": [
          -124.12856088315762,
          26.4541820267431
        ]
      }
    }
  ]
}